OBJECT_NAME,OBJECT_ID,EPOCH,MEAN_MOTION,ECCENTRICITY,INCLINATION,RA_OF_ASC_NODE,ARG_OF_PERICENTER,MEAN_ANOMALY,EPHEMERIS_TYPE,CLASSIFICATION_TYPE,NORAD_CAT_ID,ELEMENT_SET_NO,REV_AT_EPOCH,BSTAR,MEAN_MOTION_DOT,MEAN_MOTION_DDOT
ONEWEB-0211,2021-045A,2026-07-08T11:26:10.561632,13.16197552,.00025518,87.8994,254.8359,109.5143,250.6264,0,U,48767,999,24724,.31753271E-3,.134E-5,0
ONEWEB-0223,2021-045B,2026-07-08T09:55:05.952576,13.15548686,.00021878,87.9000,254.9630,109.4716,250.6651,0,U,48768,999,24719,.44091729E-3,.179E-5,0
ONEWEB-0230,2021-045C,2026-07-08T03:45:27.791424,13.15548218,.00019509,87.8984,255.0262,96.2384,263.8968,0,U,48769,999,24742,.30450884E-3,.127E-5,0
ONEWEB-0237,2021-045D,2026-07-08T10:47:34.459296,13.15548129,.00024238,87.8983,254.9691,99.1797,260.9607,0,U,48770,999,24718,-.17627195E-3,-.54E-6,0
ONEWEB-0235,2021-045E,2026-07-08T10:11:03.492672,13.15550831,.00021096,87.8999,254.9618,110.4112,249.7245,0,U,48771,999,24717,.26918155E-3,.114E-5,0
ONEWEB-0242,2021-045F,2026-07-08T10:01:56.804448,13.15548752,.00019348,87.9003,254.9604,102.6451,257.4896,0,U,48772,999,24721,.19910035E-3,.88E-6,0
ONEWEB-0241,2021-045G,2026-07-08T11:33:11.528352,13.15549947,.000223,87.9003,254.9616,97.8794,262.2589,0,U,48773,999,24713,.65844857E-3,.261E-5,0
ONEWEB-0243,2021-045H,2026-07-08T14:08:22.045056,13.15550640,.00016921,87.8989,254.9550,110.4156,249.7156,0,U,48774,999,24717,-.37299379E-3,-.128E-5,0
ONEWEB-0222,2021-045J,2026-07-08T10:05:20.946912,13.15547078,.00021846,87.8999,254.9573,105.4043,254.7328,0,U,48775,999,24719,.17018824E-3,.77E-6,0
ONEWEB-0244,2021-045K,2026-07-08T10:43:00.897888,13.15548174,.0002024,87.9002,254.9481,102.4671,257.6686,0,U,48776,999,24776,-.26014792E-3,-.85E-6,0
ONEWEB-0247,2021-045L,2026-07-07T16:23:13.662528,13.15548563,.00018356,87.8987,255.1297,122.6214,237.5094,0,U,48777,999,24710,-.31991093E-3,-.108E-5,0
ONEWEB-0245,2021-045M,2026-07-08T14:10:38.479296,13.15549212,.00022154,87.8999,254.9301,101.3899,258.7480,0,U,48778,999,24719,-.35429696E-3,-.121E-5,0
ONEWEB-0229,2021-045N,2026-07-08T14:03:48.154464,13.15547668,.00019178,87.8998,254.9286,100.0482,260.0865,0,U,48779,999,24722,-.5186624E-3,-.182E-5,0
ONEWEB-0228,2021-045P,2026-07-08T11:12:52.401888,13.15549600,.00021224,87.9004,254.9464,101.5816,258.5553,0,U,48780,999,24712,.32536775E-3,.135E-5,0
ONEWEB-0232,2021-045Q,2026-07-08T10:36:10.378656,13.15546927,.00021683,87.9000,254.9514,99.6183,260.5192,0,U,48781,999,24744,-.60265174E-3,-.214E-5,0
ONEWEB-0231,2021-045R,2026-07-08T10:04:13.211904,13.15547475,.00021346,87.8996,254.9680,105.6774,254.4592,0,U,48782,999,24713,.13243017E-3,.63E-6,0
ONEWEB-0234,2021-045S,2026-07-08T10:58:47.148960,13.15547469,.00028714,87.8997,254.9426,91.6856,268.4603,0,U,48783,999,24727,.2018598E-4,.2E-6,0
ONEWEB-0238,2021-045T,2026-07-08T10:59:09.909312,13.15548323,.00024838,87.9000,254.9381,94.6495,265.4919,0,U,48784,999,24717,.16265025E-4,.19E-6,0
ONEWEB-0240,2021-045U,2026-07-08T11:29:47.213952,13.15549378,.00022864,87.9001,254.9434,104.7180,255.4204,0,U,48785,999,24720,.44237192E-3,.179E-5,0
ONEWEB-0246,2021-045V,2026-07-08T04:03:42.612480,13.15547435,.00019683,87.8996,255.0093,100.6563,259.4789,0,U,48786,999,24703,.36605736E-3,.151E-5,0
ONEWEB-0210,2021-045W,2026-07-08T10:45:17.498880,13.15548080,.00015768,87.9000,254.9509,120.9424,239.1862,0,U,48787,999,24711,-.33290804E-3,-.113E-5,0
ONEWEB-0214,2021-045X,2026-07-08T10:57:49.009536,13.15547834,.00017549,87.9000,254.9461,98.5142,261.6188,0,U,48788,999,24708,-.5236575E-3,-.184E-5,0
ONEWEB-0221,2021-045Y,2026-07-08T11:08:07.054656,13.15548415,.00020893,87.8996,254.9536,105.0698,255.0664,0,U,48789,999,24717,.16366463E-3,.74E-6,0
ONEWEB-0213,2021-045Z,2026-07-08T10:52:08.599584,13.15548455,.00020172,87.8998,254.9585,106.8700,253.2651,0,U,48790,999,24723,-.83205724E-4,-.18E-6,0
ONEWEB-0212,2021-045AA,2026-07-08T13:58:04.671264,13.15546802,.0002092,87.8999,254.9271,98.0102,262.1266,0,U,48791,999,24724,-.30740897E-3,-.103E-5,0
ONEWEB-0227,2021-045AB,2026-07-08T13:56:57.452928,13.15547824,.00020757,87.8997,254.9277,100.5299,259.6065,0,U,48792,999,24719,-.30188782E-3,-.101E-5,0
ONEWEB-0226,2021-045AC,2026-07-08T10:08:46.902912,13.15547662,.00019038,87.8998,254.9638,104.7996,255.3346,0,U,48793,999,24714,-.28181073E-4,.2E-7,0
ONEWEB-0224,2021-045AD,2026-07-08T11:05:50.293824,13.15548464,.00029375,87.8988,254.9888,104.3665,255.7791,0,U,48794,999,24707,.16716118E-3,.76E-6,0
ONEWEB-0233,2021-045AE,2026-07-08T13:02:00.587904,13.15550747,.00021765,87.8988,254.9797,106.0502,254.0869,0,U,48795,999,24710,.28095552E-3,.119E-5,0
ONEWEB-0190,2021-045AF,2026-07-08T10:54:25.399296,13.15548659,.00020647,87.8996,254.9605,118.2549,241.8790,0,U,48796,999,24716,-.1130384E-3,-.3E-6,0
