ONEWEB-0211             
1 48767U 21045A   26189.47651113  .00000134  00000+0  31753-3 0  9997
2 48767  87.8994 254.8359 0002551 109.5143 250.6264 13.16197552247245
ONEWEB-0223             
1 48768U 21045B   26189.41326334  .00000179  00000+0  44092-3 0  9995
2 48768  87.9000 254.9630 0002187 109.4716 250.6651 13.15548686247199
ONEWEB-0230             
1 48769U 21045C   26189.15657166  .00000127  00000+0  30451-3 0  9994
2 48769  87.8984 255.0262 0001950  96.2384 263.8968 13.15548218247428
ONEWEB-0237             
1 48770U 21045D   26189.44970439 -.00000054  00000+0 -17627-3 0  9990
2 48770  87.8983 254.9691 0002423  99.1797 260.9607 13.15548129247181
ONEWEB-0235             
1 48771U 21045E   26189.42434598  .00000114  00000+0  26918-3 0  9998
2 48771  87.8999 254.9618 0002109 110.4112 249.7245 13.15550831247172
ONEWEB-0242             
1 48772U 21045F   26189.41801857  .00000088  00000+0  19910-3 0  9998
2 48772  87.9003 254.9604 0001934 102.6451 257.4896 13.15548752247211
ONEWEB-0241             
1 48773U 21045G   26189.48138343  .00000261  00000+0  65845-3 0  9990
2 48773  87.9003 254.9616 0002230  97.8794 262.2589 13.15549947247131
ONEWEB-0243             
1 48774U 21045H   26189.58914404 -.00000128  00000+0 -37299-3 0  9998
2 48774  87.8989 254.9550 0001692 110.4156 249.7156 13.15550640247172
ONEWEB-0222             
1 48775U 21045J   26189.42038133  .00000077  00000+0  17019-3 0  9997
2 48775  87.8999 254.9573 0002184 105.4043 254.7328 13.15547078247195
ONEWEB-0244             
1 48776U 21045K   26189.44653817 -.00000085  00000+0 -26015-3 0  9999
2 48776  87.9002 254.9481 0002024 102.4671 257.6686 13.15548174247767
ONEWEB-0247             
1 48777U 21045L   26188.68279702 -.00000108  00000+0 -31991-3 0  9997
2 48777  87.8987 255.1297 0001835 122.6214 237.5094 13.15548563247103
ONEWEB-0245             
1 48778U 21045M   26189.59072314 -.00000121  00000+0 -35430-3 0  9996
2 48778  87.8999 254.9301 0002215 101.3899 258.7480 13.15549212247191
ONEWEB-0229             
1 48779U 21045N   26189.58597401 -.00000182  00000+0 -51866-3 0  9993
2 48779  87.8998 254.9286 0001917 100.0482 260.0865 13.15547668247225
ONEWEB-0228             
1 48780U 21045P   26189.46727317  .00000135  00000+0  32537-3 0  9993
2 48780  87.9004 254.9464 0002122 101.5816 258.5553 13.15549600247123
ONEWEB-0232             
1 48781U 21045Q   26189.44178679 -.00000214  00000+0 -60265-3 0  9992
2 48781  87.9000 254.9514 0002168  99.6183 260.5192 13.15546927247446
ONEWEB-0231             
1 48782U 21045R   26189.41959736  .00000063  00000+0  13243-3 0  9995
2 48782  87.8996 254.9680 0002134 105.6774 254.4592 13.15547475247132
ONEWEB-0234             
1 48783U 21045S   26189.45749015  .00000020  00000+0  20186-4 0  9995
2 48783  87.8997 254.9426 0002871  91.6856 268.4603 13.15547469247271
ONEWEB-0238             
1 48784U 21045T   26189.45775358  .00000019  00000+0  16265-4 0  9996
2 48784  87.9000 254.9381 0002483  94.6495 265.4919 13.15548323247175
ONEWEB-0240             
1 48785U 21045U   26189.47901868  .00000179  00000+0  44237-3 0  9992
2 48785  87.9001 254.9434 0002286 104.7180 255.4204 13.15549378247202
ONEWEB-0246             
1 48786U 21045V   26189.16924320  .00000151  00000+0  36606-3 0  9998
2 48786  87.8996 255.0093 0001968 100.6563 259.4789 13.15547435247039
ONEWEB-0210             
1 48787U 21045W   26189.44811920 -.00000113  00000+0 -33291-3 0  9998
2 48787  87.9000 254.9509 0001576 120.9424 239.1862 13.15548080247116
ONEWEB-0214             
1 48788U 21045X   26189.45681724 -.00000184  00000+0 -52366-3 0  9999
2 48788  87.9000 254.9461 0001754  98.5142 261.6188 13.15547834247082
ONEWEB-0221             
1 48789U 21045Y   26189.46397054  .00000074  00000+0  16366-3 0  9997
2 48789  87.8996 254.9536 0002089 105.0698 255.0664 13.15548415247173
ONEWEB-0213             
1 48790U 21045Z   26189.45287731 -.00000018  00000+0 -83206-4 0  9996
2 48790  87.8998 254.9585 0002017 106.8700 253.2651 13.15548455247232
ONEWEB-0212             
1 48791U 21045AA  26189.58199851 -.00000103  00000+0 -30741-3 0  9996
2 48791  87.8999 254.9271 0002092  98.0102 262.1266 13.15546802247243
ONEWEB-0227             
1 48792U 21045AB  26189.58122052 -.00000101  00000+0 -30189-3 0  9990
2 48792  87.8997 254.9277 0002075 100.5299 259.6065 13.15547824247192
ONEWEB-0226             
1 48793U 21045AC  26189.42276508  .00000002  00000+0 -28181-4 0  9999
2 48793  87.8998 254.9638 0001903 104.7996 255.3346 13.15547662247144
ONEWEB-0224             
1 48794U 21045AD  26189.46238766  .00000076  00000+0  16716-3 0  9998
2 48794  87.8988 254.9888 0002937 104.3665 255.7791 13.15548464247079
ONEWEB-0233             
1 48795U 21045AE  26189.54306236  .00000119  00000+0  28096-3 0  9998
2 48795  87.8988 254.9797 0002176 106.0502 254.0869 13.15550747247102
ONEWEB-0190             
1 48796U 21045AF  26189.45446064 -.00000030  00000+0 -11304-3 0  9991
2 48796  87.8996 254.9605 0002064 118.2549 241.8790 13.15548659247164
